{
  "type": "FeatureCollection",
  "generator": "overpass-turbo",
  "copyright": "The data included in this document is from www.openstreetmap.org. The data is made available under ODbL.",
  "timestamp": "2025-12-17T17:18:00Z",
  "features": [
    {
      "type": "Feature",
      "properties": {
        "@id": "node/563751850",
        "colour": "red",
        "layer": "-5",
        "name": "Novza",
        "name:en": "Novza (Hamza)",
        "name:fa": "نوزا (حمزه)",
        "name:ru": "Новза (Хамза)",
        "name:uz": "Novza (Hamza)",
        "network": "Ташкентский метрополитен",
        "old_name": "Хамза;Новза",
        "old_name:en": "Khamza;Novza",
        "old_name:ru": "Хамза;Новза",
        "operator": "Ассоциация «Тошшаҳартрансхизмат»",
        "public_transport": "station",
        "railway": "station",
        "station": "subway",
        "subway": "yes",
        "transport": "subway",
        "wikidata": "Q4495260",
        "wikipedia": "uz:Novza (metro bekati)"
      },
      "geometry": {
        "type": "Point",
        "coordinates": [
          69.2236165,
          41.2918722
        ]
      },
      "id": "node/563751850"
    },
    {
      "type": "Feature",
      "properties": {
        "@id": "node/568770460",
        "colour": "red",
        "layer": "-5",
        "name": "Xalqlar doʻstligi",
        "name:en": "Drujba Narodov",
        "name:fa": "دوستی مردمان",
        "name:ru": "Дружба Народов",
        "network": "Ташкентский метрополитен",
        "old_name": "Bunyodkor;Дружба Народов",
        "old_name:en": "Bunyodkor",
        "old_name:eo": "Bunyodkor",
        "old_name:ru": "Бунёдкор;Дружба Народов",
        "old_name:uz": "Bunedkor",
        "operator": "Ассоциация «Тошшаҳартрансхизмат»",
        "public_transport": "station",
        "railway": "station",
        "station": "subway",
        "subway": "yes",
        "transport": "subway",
        "wikidata": "Q4099275",
        "wikipedia": "uz:Xalqlar doʻstligi (metro bekati)"
      },
      "geometry": {
        "type": "Point",
        "coordinates": [
          69.2430959,
          41.3118987
        ]
      },
      "id": "node/568770460"
    },
    {
      "type": "Feature",
      "properties": {
        "@id": "node/852873027",
        "colour": "red",
        "layer": "-5",
        "name": "Mirzo Ulugʻbek",
        "name:en": "Mirzo Ulugbek (50 years USSR)",
        "name:fa": "میرزا اولوغبیک",
        "name:ru": "Мирзо Улугбек (50 лет СССР)",
        "name:uz": "Mirzo Ulugʻbek (SSSR 50 yilligi)",
        "network": "Ташкентский метрополитен",
        "old_name": "50 лет СССР",
        "operator": "Ассоциация «Тошшаҳартрансхизмат»",
        "public_transport": "station",
        "railway": "station",
        "station": "subway",
        "subway": "yes",
        "transport": "subway",
        "wikidata": "Q4295611",
        "wikipedia": "uz:Mirzo Ulugʻbek (metro bekati)"
      },
      "geometry": {
        "type": "Point",
        "coordinates": [
          69.2125834,
          41.2820342
        ]
      },
      "id": "node/852873027"
    },
    {
      "type": "Feature",
      "properties": {
        "@id": "node/854338154",
        "colour": "red",
        "layer": "-5",
        "name": "Chilonzor",
        "name:en": "Chilanzar",
        "name:eo": "Chilanzar",
        "name:fa": "چیلانزار",
        "name:ru": "Чиланзар",
        "network": "Ташкентский метрополитен",
        "operator": "Ассоциация «Тошшаҳартрансхизмат»",
        "public_transport": "station",
        "railway": "station",
        "station": "subway",
        "subway": "yes",
        "transport": "subway",
        "wikidata": "Q4515926",
        "wikipedia": "uz:Chilonzor (metro bekati)"
      },
      "geometry": {
        "type": "Point",
        "coordinates": [
          69.2049735,
          41.274359
        ]
      },
      "id": "node/854338154"
    },
    {
      "type": "Feature",
      "properties": {
        "@id": "node/1252201486",
        "colour": "red",
        "layer": "-5",
        "name": "Milliy bogʻ",
        "name:en": "Milliy Bog (Komsomolskaya)",
        "name:fa": "پارک ملی",
        "name:ru": "Миллий Бог (Комсомольская)",
        "name:uz": "Milliy bogʻ (Komsomolskaya)",
        "network": "Ташкентский метрополитен",
        "old_name": "Ёшлик;Комсомольская",
        "operator": "Ассоциация «Тошшаҳартрансхизмат»",
        "public_transport": "station",
        "railway": "station",
        "station": "subway",
        "subway": "yes",
        "transport": "subway",
        "wikidata": "Q4293549",
        "wikipedia": "uz:Milliy bogʻ (metro bekati)"
      },
      "geometry": {
        "type": "Point",
        "coordinates": [
          69.2356663,
          41.3033944
        ]
      },
      "id": "node/1252201486"
    },
    {
      "type": "Feature",
      "properties": {
        "@id": "node/1539317100",
        "colour": "blue",
        "layer": "-5",
        "name": "G'afur G'ulom",
        "name:en": "Gafur Gulyam",
        "name:fa": "غفور غلام",
        "name:ru": "Гафур Гулям",
        "name:uz": "Gʻafur Gʻulom",
        "network": "Ташкентский метрополитен",
        "operator": "Ассоциация «Тошшаҳартрансхизмат»",
        "public_transport": "station",
        "railway": "station",
        "station": "subway",
        "subway": "yes",
        "wikidata": "Q4134283",
        "wikipedia": "uz:Gʻafur Gʻulom (metro bekati)"
      },
      "geometry": {
        "type": "Point",
        "coordinates": [
          69.2458342,
          41.3278828
        ]
      },
      "id": "node/1539317100"
    },
    {
      "type": "Feature",
      "properties": {
        "@id": "node/1577932485",
        "colour": "blue",
        "layer": "-5",
        "name": "Chorsu",
        "name:en": "Chorsu",
        "name:fa": "چارسو",
        "name:ru": "Чорсу",
        "name:uz": "Chorsu",
        "network": "Ташкентский метрополитен",
        "operator": "Ассоциация «Тошшаҳартрансхизмат»",
        "public_transport": "station",
        "railway": "station",
        "station": "subway",
        "subway": "yes",
        "wikidata": "Q2452951",
        "wikipedia": "uz:Chorsu (metro bekati)"
      },
      "geometry": {
        "type": "Point",
        "coordinates": [
          69.2368152,
          41.3258649
        ]
      },
      "id": "node/1577932485"
    },
    {
      "type": "Feature",
      "properties": {
        "@id": "node/1579080941",
        "colour": "blue",
        "layer": "-5",
        "name": "Oybek",
        "name:en": "Aybek",
        "name:fa": "آیبک",
        "name:ru": "Айбек",
        "name:uz": "Oybek",
        "network": "Ташкентский метрополитен",
        "old_name:ru": "Айбек",
        "operator": "Ассоциация «Тошшаҳартрансхизмат»",
        "public_transport": "station",
        "railway": "station",
        "station": "subway",
        "subway": "yes",
        "website": "https://tashmetro.uz/",
        "wikidata": "Q4058725",
        "wikipedia": "ru:Айбек (станция метро)"
      },
      "geometry": {
        "type": "Point",
        "coordinates": [
          69.2740501,
          41.2980128
        ]
      },
      "id": "node/1579080941"
    },
    {
      "type": "Feature",
      "properties": {
        "@id": "node/1579080943",
        "name": "Mingoʻrik",
        "name:en": "Ming Urik",
        "name:fa": "مینگ اوریک",
        "name:ru": "Минг Урик",
        "name:ru-Latn": "Ming Urik",
        "name:uz": "Mingoʻrik",
        "network": "Ташкентский метрополитен",
        "operator": "Ассоциация «Тошшаҳартрансхизмат»",
        "public_transport": "station",
        "railway": "station",
        "station": "subway",
        "subway": "yes",
        "wikidata": "Q4294045",
        "wikipedia": "uz:Mingoʻrik (metro bekati)"
      },
      "geometry": {
        "type": "Point",
        "coordinates": [
          69.2744397,
          41.2996373
        ]
      },
      "id": "node/1579080943"
    },
    {
      "type": "Feature",
      "properties": {
        "@id": "node/1582352956",
        "alt_name:en": "Toshkent",
        "alt_name:uz": "Тошкент",
        "colour": "blue",
        "layer": "-5",
        "name": "Toshkent",
        "name:en": "Tashkent",
        "name:fa": "تاشکند",
        "name:ru": "Ташкент",
        "network": "Ташкентский метрополитен",
        "operator": "Ассоциация «Тошшаҳартрансхизмат»",
        "public_transport": "station",
        "railway": "station",
        "station": "subway",
        "subway": "yes",
        "transport": "subway",
        "wikidata": "Q4120994",
        "wikipedia": "uz:Toshkent (metro bekati)"
      },
      "geometry": {
        "type": "Point",
        "coordinates": [
          69.2877212,
          41.2932886
        ]
      },
      "id": "node/1582352956"
    },
    {
      "type": "Feature",
      "properties": {
        "@id": "node/1631211328",
        "colour": "blue",
        "layer": "-5",
        "name": "Beruniy",
        "name:en": "Beruniy",
        "name:fa": "بیرونی",
        "name:ru": "Беруни",
        "name:uz": "Beruniy",
        "network": "Ташкентский метрополитен",
        "operator": "Ассоциация «Тошшаҳартрансхизмат»",
        "public_transport": "station",
        "railway": "station",
        "station": "subway",
        "subway": "yes",
        "transport": "subway",
        "wikidata": "Q4085250",
        "wikipedia": "uz:Beruniy_(metro_bekati)"
      },
      "geometry": {
        "type": "Point",
        "coordinates": [
          69.2062046,
          41.3446152
        ]
      },
      "id": "node/1631211328"
    },
    {
      "type": "Feature",
      "properties": {
        "@id": "node/1633822600",
        "alt_name:ru": "Шахристан",
        "layer": "-5",
        "name": "Shahriston",
        "name:en": "Shahristan",
        "name:fa": "شهرستان",
        "name:ru": "Шахристан",
        "name:ru-Latn": "Schakhristan",
        "network": "Ташкентский метрополитен",
        "old_name": "Хабиб Абдуллаев",
        "old_name:en": "Habib Abdullaev",
        "old_name:ru": "Хабиб Абдуллаев",
        "old_name:uz": "Habib Abdullaev",
        "operator": "Ассоциация «Тошшаҳартрансхизмат»",
        "public_transport": "station",
        "railway": "station",
        "station": "subway",
        "subway": "yes",
        "transport": "subway",
        "wikidata": "Q4494388",
        "wikipedia": "ru:Шахристан (станция метро)"
      },
      "geometry": {
        "type": "Point",
        "coordinates": [
          69.2881069,
          41.3531185
        ]
      },
      "id": "node/1633822600"
    },
    {
      "type": "Feature",
      "properties": {
        "@id": "node/1765133546",
        "colour": "blue",
        "layer": "-5",
        "name": "Mashinasozlar",
        "name:en": "Mashinasozlar (Tashselmash)",
        "name:fa": "ماشینوسوزلار",
        "name:ru": "Машиносозлар (Ташсельмаш)",
        "name:uz": "Mashinosozlar (Tashselmash)",
        "network": "Ташкентский метрополитен",
        "old_name": "Cельмаш",
        "operator": "Ассоциация «Тошшаҳартрансхизмат»",
        "public_transport": "station",
        "railway": "station",
        "station": "subway",
        "subway": "yes",
        "transport": "subway",
        "wikidata": "Q4286137",
        "wikipedia": "uz:Mashinasozlar (metro bekati)",
        "wikipedia:ru": "ru:Машинасозлар (станция метро)"
      },
      "geometry": {
        "type": "Point",
        "coordinates": [
          69.3051276,
          41.2989847
        ]
      },
      "id": "node/1765133546"
    },
    {
      "type": "Feature",
      "properties": {
        "@id": "node/1770328496",
        "colour": "blue",
        "name": "Tinchlik",
        "name:en": "Tinchlik",
        "name:fa": "تینچلیک",
        "name:ru": "Тинчлик",
        "name:uz": "Tinchlik",
        "network": "Ташкентский метрополитен",
        "operator": "Ассоциация «Тошшаҳартрансхизмат»",
        "public_transport": "station",
        "railway": "station",
        "station": "subway",
        "subway": "yes",
        "wikidata": "Q4457872",
        "wikipedia": "uz:Tinchlik (metro bekati)",
        "wikipedia:ru": "Тинчлик (станция метро)"
      },
      "geometry": {
        "type": "Point",
        "coordinates": [
          69.2191155,
          41.3323014
        ]
      },
      "id": "node/1770328496"
    },
    {
      "type": "Feature",
      "properties": {
        "@id": "node/1772575475",
        "colour": "green",
        "name": "Abdulla Qodiriy",
        "name:en": "Abdulla Qodirii",
        "name:fa": "عبدالله قادری",
        "name:ru": "Абдулла Кадыри",
        "name:uz": "Abdulla Qodiriy",
        "network": "Ташкентский метрополитен",
        "operator": "Ассоциация «Тошшаҳартрансхизмат»",
        "public_transport": "station",
        "railway": "station",
        "station": "subway",
        "subway": "yes",
        "transport": "subway",
        "wikidata": "Q4054555",
        "wikipedia": "ru:Абдулла Кодирий (станция метро)"
      },
      "geometry": {
        "type": "Point",
        "coordinates": [
          69.281759,
          41.3201924
        ]
      },
      "id": "node/1772575475"
    },
    {
      "type": "Feature",
      "properties": {
        "@id": "node/1772595534",
        "layer": "-5",
        "name": "Minor",
        "name:en": "Minor",
        "name:eo": "Minor",
        "name:fa": "مینار",
        "name:ru": "Минор",
        "name:uz": "Minor",
        "network": "Ташкентский метрополитен",
        "operator": "АК «Узбекистон темир йуллари»",
        "public_transport": "station",
        "railway": "station",
        "station": "subway",
        "subway": "yes",
        "transport": "subway",
        "wikidata": "Q4295164",
        "wikipedia": "ru:Минор (станция метро)"
      },
      "geometry": {
        "type": "Point",
        "coordinates": [
          69.2834163,
          41.3268923
        ]
      },
      "id": "node/1772595534"
    },
    {
      "type": "Feature",
      "properties": {
        "@id": "node/1775804030",
        "colour": "green",
        "layer": "-5",
        "name": "Bodomzor",
        "name:en": "Badamzar",
        "name:fa": "بادامزار",
        "name:ru": "Бадамзар",
        "name:uz": "Bodomzor",
        "network": "Ташкентский метрополитен",
        "operator": "Ассоциация «Тошшаҳартрансхизмат»",
        "public_transport": "station",
        "railway": "station",
        "station": "subway",
        "subway": "yes",
        "transport": "subway",
        "wikidata": "Q4074926",
        "wikipedia": "uz:Bodomzor (metro bekati)"
      },
      "geometry": {
        "type": "Point",
        "coordinates": [
          69.2845697,
          41.3371701
        ]
      },
      "id": "node/1775804030"
    },
    {
      "type": "Feature",
      "properties": {
        "@id": "node/1775848270",
        "alt_name": "Hamid Olimjon metro bekati",
        "colour": "red",
        "name": "Hamid Olimjon",
        "name:en": "Hamid Alimjan",
        "name:fa": "حمید عالم جان",
        "name:ru": "Хамид Алимджан",
        "name:uz": "Hamid Olimjon",
        "network": "Ташкентский метрополитен",
        "operator": "Ассоциация «Тошшаҳартрансхизмат»",
        "public_transport": "station",
        "railway": "station",
        "station": "subway",
        "subway": "yes",
        "transport": "subway",
        "wikidata": "Q4495262",
        "wikipedia": "ru:Хамида Алимджана (станция метро)"
      },
      "geometry": {
        "type": "Point",
        "coordinates": [
          69.2957419,
          41.3181644
        ]
      },
      "id": "node/1775848270"
    },
    {
      "type": "Feature",
      "properties": {
        "@id": "node/1775892797",
        "alt_name": "проспект Космонавтов",
        "colour": "blue",
        "layer": "-5",
        "name": "Kosmonavtlar",
        "name:en": "Cosmonauts",
        "name:fa": "کوسموناوتلار",
        "name:ru": "Космонавтов",
        "name:uz": "Kosmonavtlar",
        "network": "Ташкентский метрополитен",
        "operator": "Ассоциация «Тошшаҳартрансхизмат»",
        "public_transport": "station",
        "railway": "station",
        "station": "subway",
        "subway": "yes",
        "transport": "subway",
        "wikidata": "Q4235056",
        "wikipedia": "uz:Kosmonavtlar (metro bekati)"
      },
      "geometry": {
        "type": "Point",
        "coordinates": [
          69.2647207,
          41.3051618
        ]
      },
      "id": "node/1775892797"
    },
    {
      "type": "Feature",
      "properties": {
        "@id": "node/1777037919",
        "alt_name": "Метро Буюк Ипак Йули",
        "bench": "yes",
        "colour": "red",
        "covered": "yes",
        "layer": "-5",
        "name": "Buyuk Ipak Yoʻli",
        "name:en": "Buyuk Ipak Yuli (Maxim Gorky)",
        "name:fa": "بویوک ایپک یولی (ماکسیم گورکی)",
        "name:ru": "Буюк Ипак Йули (Максим Горький)",
        "name:uz": "Buyuk Ipak Yoʻli (Maksim Gorkiy)",
        "network": "Ташкентский метрополитен",
        "old_name": "метро Максима Горького",
        "old_name:en": "Maxim Gorky",
        "old_name:eo": "Maxim Gorky",
        "old_name:ru": "метро Максима Горького",
        "operator": "Ассоциация «Тошшаҳартрансхизмат»",
        "public_transport": "station",
        "railway": "station",
        "station": "subway",
        "subway": "yes",
        "transport": "subway",
        "wikidata": "Q4100729",
        "wikipedia": "ru:Буюк Ипак йули (станция метро)"
      },
      "geometry": {
        "type": "Point",
        "coordinates": [
          69.3285598,
          41.3261054
        ]
      },
      "id": "node/1777037919"
    },
    {
      "type": "Feature",
      "properties": {
        "@id": "node/1777037922",
        "alt_name": "Pushkin bekati",
        "alt_name:ru": "Пушкинская метро",
        "colour": "red",
        "layer": "-5",
        "name": "Pushkin",
        "name:en": "Pushkin",
        "name:fa": "پوشکین",
        "name:ru": "Пушкин",
        "name:uz": "Pushkin",
        "network": "Ташкентский метрополитен",
        "operator": "Ассоциация «Тошшаҳартрансхизмат»",
        "public_transport": "station",
        "railway": "station",
        "station": "subway",
        "subway": "yes",
        "transport": "subway",
        "wikidata": "Q4384777",
        "wikipedia": "uz:Pushkin (metro bekati)"
      },
      "geometry": {
        "type": "Point",
        "coordinates": [
          69.311102,
          41.3219481
        ]
      },
      "id": "node/1777037922"
    },
    {
      "type": "Feature",
      "properties": {
        "@id": "node/1777051509",
        "colour": "red",
        "layer": "-4",
        "name": "Amir Temur xiyoboni",
        "name:en": "Amir Timur Square",
        "name:fa": "میدان امیر تیمور",
        "name:ru": "Сквер Амира Тимура",
        "name:uz": "Amir Temur xiyoboni",
        "network": "Ташкентский метрополитен",
        "old_name": "Сквер Октябрьской Революции;Центральный Сквер;Амира Тимура",
        "old_name:ru": "Сквер Октябрьской Революции;Центральный Сквер;Амира Тимура",
        "operator": "Ассоциация «Тошшаҳартрансхизмат»",
        "public_transport": "station",
        "railway": "station",
        "station": "subway",
        "subway": "yes",
        "transport": "subway",
        "website": "https://tashmetro.uz/",
        "wikidata": "Q4064347",
        "wikipedia": "ru:Сквер Эмира Тимура (станция метро)"
      },
      "geometry": {
        "type": "Point",
        "coordinates": [
          69.2832691,
          41.3126738
        ]
      },
      "id": "node/1777051509"
    },
    {
      "type": "Feature",
      "properties": {
        "@id": "node/1777051512",
        "alt_name": "Юнyc Раджабий метро",
        "layer": "-5",
        "name": "Yunus Rajabiy",
        "name:en": "Yunus Rajabiy",
        "name:fa": "یونس رجبی",
        "name:ru": "Юнyc Раджаби",
        "name:uz": "Yunus Rajabiy",
        "network": "Ташкентский метрополитен",
        "public_transport": "station",
        "railway": "station",
        "station": "subway",
        "subway": "yes",
        "transport": "subway",
        "website": "https://tashmetro.uz/",
        "wikidata": "Q4534676",
        "wikipedia": "ru:Юнус Раджаби (станция метро)"
      },
      "geometry": {
        "type": "Point",
        "coordinates": [
          69.2835077,
          41.3138871
        ]
      },
      "id": "node/1777051512"
    },
    {
      "type": "Feature",
      "properties": {
        "@id": "node/1777740153",
        "alt_name:en": "Alisher Navoi",
        "alt_name:uz": "Алишер Навоий",
        "colour": "blue",
        "layer": "-5",
        "name": "Alisher Navoiy",
        "name:en": "Alisher Navoiy",
        "name:eo": "Alisher Navoi",
        "name:fa": "علیشیر نوایی",
        "name:ru": "Алишер Навои",
        "name:uz": "Alisher Navoiy",
        "network": "Ташкентский метрополитен",
        "operator": "Ассоциация «Тошшаҳартрансхизмат»",
        "public_transport": "station",
        "railway": "station",
        "station": "subway",
        "subway": "yes",
        "wikidata": "Q4062480",
        "wikipedia": "uz:Alisher Navoiy (metro bekati)"
      },
      "geometry": {
        "type": "Point",
        "coordinates": [
          69.2542973,
          41.3189218
        ]
      },
      "id": "node/1777740153"
    },
    {
      "type": "Feature",
      "properties": {
        "@id": "node/1777740154",
        "layer": "-4",
        "name": "Paxtakor",
        "name:en": "Pakhtakor",
        "name:fa": "پخته‌کار",
        "name:ru": "Пахтакор",
        "name:uz": "Paxtakor",
        "network": "Ташкентский метрополитен",
        "operator": "Ассоциация «Тошшаҳартрансхизмат»",
        "public_transport": "station",
        "railway": "station",
        "station": "subway",
        "subway": "yes",
        "transport": "subway",
        "wikidata": "Q2001497",
        "wikipedia": "uz:Paxtakor (metro bekati)"
      },
      "geometry": {
        "type": "Point",
        "coordinates": [
          69.2550882,
          41.3177914
        ]
      },
      "id": "node/1777740154"
    },
    {
      "type": "Feature",
      "properties": {
        "@id": "node/1777744035",
        "colour": "blue",
        "name": "Oʻzbekiston",
        "name:en": "Uzbekistan",
        "name:fa": "ازبکستان",
        "name:ru": "Узбекистан",
        "name:uz": "Ozbekiston",
        "network": "Ташкентский метрополитен",
        "operator": "Ассоциация «Тошшаҳартрансхизмат»",
        "public_transport": "station",
        "railway": "station",
        "station": "subway",
        "transport": "subway",
        "wikidata": "Q4469708",
        "wikipedia": "uz:Oʻzbekiston (metro bekati)"
      },
      "geometry": {
        "type": "Point",
        "coordinates": [
          69.2534057,
          41.3119437
        ]
      },
      "id": "node/1777744035"
    },
    {
      "type": "Feature",
      "properties": {
        "@id": "node/1777845992",
        "layer": "-5",
        "name": "Olmazor",
        "name:en": "Almazar (Sabir Rakhimov)",
        "name:fa": "آلمازار (صابر رحیموف)",
        "name:ru": "Алмазар (Сабир Рахимов)",
        "name:uz": "Olmazor (Sobir Rahimov)",
        "network": "Ташкентский метрополитен",
        "old_name": "Сабир Рахимов",
        "old_name:ru": "Сабир Рахимов",
        "operator": "Ассоциация «Тошшаҳартрансхизмат»",
        "public_transport": "station",
        "railway": "station",
        "station": "subway",
        "subway": "yes",
        "transport": "subway",
        "wikidata": "Q4333950",
        "wikipedia": "uz:Olmazor (metro bekati)"
      },
      "geometry": {
        "type": "Point",
        "coordinates": [
          69.1961045,
          41.2566724
        ]
      },
      "id": "node/1777845992"
    },
    {
      "type": "Feature",
      "properties": {
        "@id": "node/1777856012",
        "colour": "blue",
        "layer": "-5",
        "name": "Do'stlik",
        "name:en": "Dustlik (Chkalov)",
        "name:fa": "دوستلیک",
        "name:ru": "Дустлик (Чкалов)",
        "name:uz": "Do'stlik",
        "network": "Ташкентский метрополитен",
        "old_name": "Чкалова",
        "old_name:ru": "Чкалова",
        "operator": "Ассоциация «Тошшаҳартрансхизмат»",
        "public_transport": "station",
        "railway": "station",
        "station": "subway",
        "subway": "yes",
        "transport": "subway",
        "wikidata": "Q4171201",
        "wikipedia:uz": "Doʻstlik (metro bekati)"
      },
      "geometry": {
        "type": "Point",
        "coordinates": [
          69.3222445,
          41.2936401
        ]
      },
      "id": "node/1777856012"
    },
    {
      "type": "Feature",
      "properties": {
        "@id": "node/1778357473",
        "alt_name": "Mustaqillik maydoni metro bekati",
        "colour": "red",
        "layer": "-5",
        "name": "Mustaqillik maydoni",
        "name:fa": "میدان استقلال",
        "name:ru": "Мустакиллик майдони",
        "name:uz": "Mustaqillik maydoni",
        "network": "Ташкентский метрополитен",
        "old_name": "Площадь Ленина;Площадь независимости",
        "old_name:ru": "Площадь Ленина;Площадь независимости",
        "operator": "Ассоциация «Тошшаҳартрансхизмат»",
        "public_transport": "station",
        "railway": "station",
        "station": "subway",
        "subway": "yes",
        "transport": "subway",
        "wikidata": "Q4308514",
        "wikipedia": "uz:Mustaqillik maydoni (metro bekati)"
      },
      "geometry": {
        "type": "Point",
        "coordinates": [
          69.2710646,
          41.3149453
        ]
      },
      "id": "node/1778357473"
    },
    {
      "type": "Feature",
      "properties": {
        "@id": "node/7053509943",
        "name": "Yunusobod",
        "name:en": "Yunusabad",
        "name:fa": "یونس‌آباد",
        "name:ru": "Юнусабад",
        "network": "Ташкентский метрополитен",
        "operator": "Ассоциация «Тошшаҳартрансхизмат»",
        "public_transport": "station",
        "railway": "station",
        "start_date": "2020-08-29",
        "station": "subway",
        "subway": "yes",
        "transport": "subway",
        "wikidata": "Q12832415",
        "wikipedia": "en:Yunusobod (Tashkent Metro)"
      },
      "geometry": {
        "type": "Point",
        "coordinates": [
          69.2923003,
          41.3668411
        ]
      },
      "id": "node/7053509943"
    },
    {
      "type": "Feature",
      "properties": {
        "@id": "node/7861940928",
        "name": "Turkiston",
        "name:en": "Turkiston",
        "name:fa": "ترکستان",
        "name:ru": "Туркистан",
        "network": "Ташкентский метрополитен",
        "operator": "Ассоциация «Тошшаҳартрансхизмат»",
        "public_transport": "station",
        "railway": "station",
        "start_date": "2020-08-29",
        "station": "subway",
        "subway": "yes",
        "transport": "subway",
        "wikidata": "Q25530729",
        "wikipedia": "en:Turkiston (Tashkent Metro)"
      },
      "geometry": {
        "type": "Point",
        "coordinates": [
          69.2960151,
          41.3775217
        ]
      },
      "id": "node/7861940928"
    },
    {
      "type": "Feature",
      "properties": {
        "@id": "node/9972711745",
        "alt_name": "4-bekat",
        "name": "Olmos",
        "name:en": "Almas",
        "name:fa": "الماس",
        "name:ru": "Алмас",
        "network": "Ташкентский метрополитен",
        "public_transport": "station",
        "railway": "station",
        "station": "subway",
        "subway": "yes",
        "wikidata": "Q65160455",
        "wikipedia": "uz:Iltifot (metro bekati)",
        "wikipedia:en": "en:Iltifot (Tashkent Metro)"
      },
      "geometry": {
        "type": "Point",
        "coordinates": [
          69.3603338,
          41.281705
        ]
      },
      "id": "node/9972711745"
    },
    {
      "type": "Feature",
      "properties": {
        "@id": "node/10537927077",
        "alt_name": "1-bekat",
        "name": "Texnopark",
        "name:en": "Technopark",
        "name:fa": "تکنوپارک",
        "name:ru": "Технопарк",
        "network": "Ташкентский метрополитен",
        "operator": "Ассоциация «Тошшаҳартрансхизмат»",
        "public_transport": "station",
        "railway": "station",
        "station": "subway",
        "subway": "yes",
        "wikidata": "Q65160427",
        "wikipedia": "uz:Doʻstlik-2 (metro bekati)"
      },
      "geometry": {
        "type": "Point",
        "coordinates": [
          69.3231867,
          41.294628
        ]
      },
      "id": "node/10537927077"
    },
    {
      "type": "Feature",
      "properties": {
        "@id": "node/10537927079",
        "name": "Yashnobod",
        "name:en": "Yashnabad",
        "name:fa": "یشن‌آباد",
        "name:ru": "Яшнабад",
        "network": "Ташкентский метрополитен",
        "operator": "Ассоциация «Тошшаҳартрансхизмат»",
        "public_transport": "station",
        "railway": "station",
        "station": "subway",
        "subway": "yes",
        "wikidata": "Q97344240",
        "wikipedia": "en:Ohangaron (Tashkent Metro)"
      },
      "geometry": {
        "type": "Point",
        "coordinates": [
          69.3497831,
          41.2975859
        ]
      },
      "id": "node/10537927079"
    },
    {
      "type": "Feature",
      "properties": {
        "@id": "node/10537927080",
        "name": "Tuzel",
        "name:en": "Tuzel",
        "name:fa": "توزل",
        "name:ru": "Тузель",
        "network": "Ташкентский метрополитен",
        "operator": "Ассоциация «Тошшаҳартрансхизмат»",
        "public_transport": "station",
        "railway": "station",
        "station": "subway",
        "subway": "yes",
        "wikidata": "Q97344275",
        "wikipedia": "en:Tuzel (Tashkent Metro)"
      },
      "geometry": {
        "type": "Point",
        "coordinates": [
          69.3561844,
          41.2920125
        ]
      },
      "id": "node/10537927080"
    },
    {
      "type": "Feature",
      "properties": {
        "@id": "node/10537927081",
        "name": "Rohat",
        "name:en": "Rakhat",
        "name:fa": "راخات",
        "name:ru": "Рахат",
        "network": "Ташкентский метрополитен",
        "operator": "Ассоциация «Тошшаҳартрансхизмат»",
        "public_transport": "station",
        "railway": "station",
        "station": "subway",
        "subway": "yes",
        "wikidata": "Q97344269",
        "wikipedia": "en:Rohat (Tashkent Metro)"
      },
      "geometry": {
        "type": "Point",
        "coordinates": [
          69.3647517,
          41.2652907
        ]
      },
      "id": "node/10537927081"
    },
    {
      "type": "Feature",
      "properties": {
        "@id": "node/10537927082",
        "name": "Yangiobod",
        "name:en": "Yangiabad",
        "name:fa": "ینگی آباد",
        "name:ru": "Янгиабад",
        "network": "Ташкентский метрополитен",
        "operator": "Ассоциация «Тошшаҳартрансхизмат»",
        "public_transport": "station",
        "railway": "station",
        "station": "subway",
        "subway": "yes",
        "wikidata": "Q97344283",
        "wikipedia": "en:Yangiobod (Tashkent Metro)"
      },
      "geometry": {
        "type": "Point",
        "coordinates": [
          69.3587242,
          41.2565075
        ]
      },
      "id": "node/10537927082"
    },
    {
      "type": "Feature",
      "properties": {
        "@id": "node/10537927083",
        "name": "Qo‘yliq",
        "name:en": "Kuylyuk",
        "name:fa": "قویلیق",
        "name:ru": "Куйлюк",
        "network": "Ташкентский метрополитен",
        "operator": "Ассоциация «Тошшаҳартрансхизмат»",
        "public_transport": "station",
        "railway": "station",
        "station": "subway",
        "subway": "yes",
        "wikidata": "Q97344259",
        "wikipedia": "en:Qoʻylik (Tashkent Metro)"
      },
      "geometry": {
        "type": "Point",
        "coordinates": [
          69.3270001,
          41.2374579
        ]
      },
      "id": "node/10537927083"
    },
    {
      "type": "Feature",
      "properties": {
        "@id": "node/10537931294",
        "name": "Matonat",
        "name:en": "Matonat",
        "name:fa": "ماتونات",
        "name:ru": "Матонат",
        "network": "Ташкентский метрополитен",
        "operator": "Ассоциация «Тошшаҳартрансхизмат»",
        "public_transport": "station",
        "railway": "station",
        "station": "subway",
        "subway": "yes",
        "wikidata": "Q117865916"
      },
      "geometry": {
        "type": "Point",
        "coordinates": [
          69.3083229,
          41.2444713
        ]
      },
      "id": "node/10537931294"
    },
    {
      "type": "Feature",
      "properties": {
        "@id": "node/10537931295",
        "alt_name": "9-bekat",
        "name": "Qiyot",
        "name:en": "Qiyot",
        "name:fa": "کیوت",
        "name:ru": "Киёт",
        "operator": "Ассоциация «Тошшаҳартрансхизмат»",
        "public_transport": "station",
        "railway": "station",
        "station": "subway",
        "subway": "yes",
        "wikidata": "Q117865934"
      },
      "geometry": {
        "type": "Point",
        "coordinates": [
          69.299728,
          41.2444796
        ]
      },
      "id": "node/10537931295"
    },
    {
      "type": "Feature",
      "properties": {
        "@id": "node/10538244112",
        "name": "Choshtepa",
        "name:en": "Chashtepa",
        "name:fa": "چاشتپه",
        "name:ru": "Чаштепа",
        "name:uz": "Choshtepa",
        "network": "Ташкентский метрополитен",
        "public_transport": "station",
        "railway": "station",
        "station": "subway",
        "subway": "yes",
        "wikidata": "Q12820877",
        "wikipedia": "uz:Choshtepa (metro bekati)"
      },
      "geometry": {
        "type": "Point",
        "coordinates": [
          69.1960345,
          41.2382496
        ]
      },
      "id": "node/10538244112"
    },
    {
      "type": "Feature",
      "properties": {
        "@id": "node/10538244113",
        "name": "O‘zgarish",
        "name:en": "Uzgarish",
        "name:fa": "ازگاریش",
        "name:ru": "Узгариш",
        "network": "Ташкентский метрополитен",
        "operator": "Ассоциация «Тошшаҳартрансхизмат»",
        "public_transport": "station",
        "railway": "station",
        "station": "subway",
        "subway": "yes",
        "wikidata": "Q12817052",
        "wikipedia": "uz:Oʻzgarish (metro bekati)"
      },
      "geometry": {
        "type": "Point",
        "coordinates": [
          69.2039714,
          41.2273364
        ]
      },
      "id": "node/10538244113"
    },
    {
      "type": "Feature",
      "properties": {
        "@id": "node/10538244119",
        "alt_name": "Bekat-4",
        "name": "Yangihayot",
        "name:en": "Yangihayot",
        "name:fa": "ینگی‌حیات",
        "name:ru": "Янгихаёт",
        "network": "Ташкентский метрополитен",
        "operator": "Ассоциация «Тошшаҳартрансхизмат»",
        "public_transport": "station",
        "railway": "station",
        "station": "subway",
        "subway": "yes",
        "wikidata": "Q105642828",
        "wikipedia": "uz:Afrosiyob (metro bekati)"
      },
      "geometry": {
        "type": "Point",
        "coordinates": [
          69.214015,
          41.2135099
        ]
      },
      "id": "node/10538244119"
    },
    {
      "type": "Feature",
      "properties": {
        "@id": "node/10538244120",
        "alt_name": "Bekat-5",
        "name": "Chinor",
        "name:en": "Chinara",
        "name:fa": "چینارا",
        "name:ru": "Чинара",
        "network": "Ташкентский метрополитен",
        "operator": "Ассоциация «Тошшаҳартрансхизмат»",
        "public_transport": "station",
        "railway": "station",
        "station": "subway",
        "subway": "yes",
        "wikidata": "Q12831407",
        "wikipedia": "uz:Chinor (metro bekati)"
      },
      "geometry": {
        "type": "Point",
        "coordinates": [
          69.2189575,
          41.2066965
        ]
      },
      "id": "node/10538244120"
    },
    {
      "type": "Feature",
      "properties": {
        "@id": "node/10538303447",
        "alt_name": "10-Bekat",
        "name": "Tolarik",
        "name:en": "Talaryk",
        "name:fa": "تالاریک",
        "name:ru": "Таларык",
        "network": "Ташкентский метрополитен",
        "operator": "Ассоциация «Тошшаҳартрансхизмат»",
        "public_transport": "station",
        "railway": "station",
        "station": "subway",
        "subway": "yes",
        "wikidata": "Q117868715"
      },
      "geometry": {
        "type": "Point",
        "coordinates": [
          69.2849568,
          41.2445139
        ]
      },
      "id": "node/10538303447"
    },
    {
      "type": "Feature",
      "properties": {
        "@id": "node/10637629351",
        "alt_name": "11-Bekat",
        "name": "Xonobod",
        "name:en": "Khanabad",
        "name:fa": "خان آباد",
        "name:ru": "Ханабад",
        "network": "Ташкентский метрополитен",
        "operator": "Ассоциация «Тошшаҳартрансхизмат»",
        "public_transport": "station",
        "railway": "station",
        "station": "subway",
        "subway": "yes",
        "wikidata": "Q117868791"
      },
      "geometry": {
        "type": "Point",
        "coordinates": [
          69.2704353,
          41.2300103
        ]
      },
      "id": "node/10637629351"
    },
    {
      "type": "Feature",
      "properties": {
        "@id": "node/10637629352",
        "alt_name": "12-Bekat",
        "name": "Quruvchilar",
        "name:en": "Kuruvchilar (Stroiteley)",
        "name:fa": "قورووچیلار",
        "name:ru": "Курувчилар (Строителей)",
        "name:uz": "Quruvchilar (Stroiteley)",
        "network": "Ташкентский метрополитен",
        "operator": "Ассоциация «Тошшаҳартрансхизмат»",
        "public_transport": "station",
        "railway": "station",
        "station": "subway",
        "subway": "yes",
        "wikidata": "Q117868858"
      },
      "geometry": {
        "type": "Point",
        "coordinates": [
          69.2605033,
          41.2216367
        ]
      },
      "id": "node/10637629352"
    },
    {
      "type": "Feature",
      "properties": {
        "@id": "node/11218653778",
        "name": "Qipchok",
        "name:en": "Kipchak",
        "name:fa": "قپچاق",
        "name:ru": "Кипчак",
        "network": "Ташкентский метрополитен",
        "operator": "Ассоциация «Тошшаҳартрансхизмат»",
        "public_transport": "station",
        "railway": "station",
        "station": "subway",
        "subway": "yes",
        "wikidata": "Q124820156"
      },
      "geometry": {
        "type": "Point",
        "coordinates": [
          69.2214112,
          41.2054229
        ]
      },
      "id": "node/11218653778"
    },
    {
      "type": "Feature",
      "properties": {
        "@id": "node/11218653779",
        "name": "Turon",
        "name:en": "Turan",
        "name:fa": "توران",
        "name:ru": "Туран",
        "network": "Ташкентский метрополитен",
        "operator": "Ассоциация «Тошшаҳартрансхизмат»",
        "public_transport": "station",
        "railway": "station",
        "station": "subway",
        "subway": "yes",
        "wikidata": "Q124820177"
      },
      "geometry": {
        "type": "Point",
        "coordinates": [
          69.234154,
          41.2106813
        ]
      },
      "id": "node/11218653779"
    }
  ]
}